CCSDS_OMM_VERS = 2.0
CREATION_DATE  = 
ORIGINATOR     = 

OBJECT_NAME    = SL-14 R/B
OBJECT_ID      = 1986-046B
CENTER_NAME    = EARTH
REF_FRAME      = TEME
TIME_SYSTEM    = UTC
MEAN_ELEMENT_THEORY = SGP/SGP4

EPOCH          = 2026-03-19T05:41:17.508480
MEAN_MOTION    = 14.85599431
ECCENTRICITY   = .00226932
INCLINATION    = 82.4788
RA_OF_ASC_NODE = 71.1577
ARG_OF_PERICENTER = 192.6850
MEAN_ANOMALY   = 167.3798

EPHEMERIS_TYPE = 0
CLASSIFICATION_TYPE = U
NORAD_CAT_ID   = 16792
ELEMENT_SET_NO = 999
REV_AT_EPOCH   = 12782
BSTAR          = .46659273E-4
MEAN_MOTION_DOT = .43E-5
MEAN_MOTION_DDOT = 0

CCSDS_OMM_VERS = 2.0
CREATION_DATE  = 
ORIGINATOR     = 

OBJECT_NAME    = SL-14 R/B
OBJECT_ID      = 1986-055B
CENTER_NAME    = EARTH
REF_FRAME      = TEME
TIME_SYSTEM    = UTC
MEAN_ELEMENT_THEORY = SGP/SGP4

EPOCH          = 2026-03-19T03:56:38.169888
MEAN_MOTION    = 14.85650975
ECCENTRICITY   = .00175331
INCLINATION    = 82.5183
RA_OF_ASC_NODE = 117.7675
ARG_OF_PERICENTER = 303.5139
MEAN_ANOMALY   = 114.8616

EPHEMERIS_TYPE = 0
CLASSIFICATION_TYPE = U
NORAD_CAT_ID   = 16882
ELEMENT_SET_NO = 999
REV_AT_EPOCH   = 12077
BSTAR          = .42142435E-4
MEAN_MOTION_DOT = .39E-5
MEAN_MOTION_DDOT = 0

CCSDS_OMM_VERS = 2.0
CREATION_DATE  = 
ORIGINATOR     = 

OBJECT_NAME    = AJISAI (EGS)
OBJECT_ID      = 1986-061A
CENTER_NAME    = EARTH
REF_FRAME      = TEME
TIME_SYSTEM    = UTC
MEAN_ELEMENT_THEORY = SGP/SGP4

EPOCH          = 2026-03-19T06:52:15.976992
MEAN_MOTION    = 12.44515698
ECCENTRICITY   = .00113026
INCLINATION    = 50.0091
RA_OF_ASC_NODE = 63.8367
ARG_OF_PERICENTER = 311.7860
MEAN_ANOMALY   = 181.5544

EPHEMERIS_TYPE = 0
CLASSIFICATION_TYPE = U
NORAD_CAT_ID   = 16908
ELEMENT_SET_NO = 999
REV_AT_EPOCH   = 46919
BSTAR          = -.44051418E-4
MEAN_MOTION_DOT = -.104E-5
MEAN_MOTION_DDOT = 0

CCSDS_OMM_VERS = 2.0
CREATION_DATE  = 
ORIGINATOR     = 

OBJECT_NAME    = SL-14 R/B
OBJECT_ID      = 1987-024B
CENTER_NAME    = EARTH
REF_FRAME      = TEME
TIME_SYSTEM    = UTC
MEAN_ELEMENT_THEORY = SGP/SGP4

EPOCH          = 2026-03-19T01:33:30.372768
MEAN_MOTION    = 14.86140912
ECCENTRICITY   = .00170525
INCLINATION    = 82.5244
RA_OF_ASC_NODE = 83.9491
ARG_OF_PERICENTER = 226.3165
MEAN_ANOMALY   = 133.6639

EPHEMERIS_TYPE = 0
CLASSIFICATION_TYPE = U
NORAD_CAT_ID   = 17567
ELEMENT_SET_NO = 999
REV_AT_EPOCH   = 8952
BSTAR          = .45196222E-4
MEAN_MOTION_DOT = .421E-5
MEAN_MOTION_DDOT = 0

CCSDS_OMM_VERS = 2.0
CREATION_DATE  = 
ORIGINATOR     = 

OBJECT_NAME    = COSMOS 1833
OBJECT_ID      = 1987-027A
CENTER_NAME    = EARTH
REF_FRAME      = TEME
TIME_SYSTEM    = UTC
MEAN_ELEMENT_THEORY = SGP/SGP4

EPOCH          = 2026-03-19T01:30:37.931328
MEAN_MOTION    = 14.13051840
ECCENTRICITY   = .00237848
INCLINATION    = 70.9199
RA_OF_ASC_NODE = 306.3190
ARG_OF_PERICENTER = 201.0689
MEAN_ANOMALY   = 158.9454

EPHEMERIS_TYPE = 0
CLASSIFICATION_TYPE = U
NORAD_CAT_ID   = 17589
ELEMENT_SET_NO = 999
REV_AT_EPOCH   = 1164
BSTAR          = -.94825281E-4
MEAN_MOTION_DOT = -.226E-5
MEAN_MOTION_DDOT = 0

CCSDS_OMM_VERS = 2.0
CREATION_DATE  = 
ORIGINATOR     = 

OBJECT_NAME    = SL-16 R/B
OBJECT_ID      = 1987-027B
CENTER_NAME    = EARTH
REF_FRAME      = TEME
TIME_SYSTEM    = UTC
MEAN_ELEMENT_THEORY = SGP/SGP4

EPOCH          = 2026-03-19T05:18:30.370176
MEAN_MOTION    = 14.17166753
ECCENTRICITY   = .00030666
INCLINATION    = 70.9992
RA_OF_ASC_NODE = 256.4076
ARG_OF_PERICENTER = 120.6455
MEAN_ANOMALY   = 239.4971

EPHEMERIS_TYPE = 0
CLASSIFICATION_TYPE = U
NORAD_CAT_ID   = 17590
ELEMENT_SET_NO = 999
REV_AT_EPOCH   = 1669
BSTAR          = -.17031193E-4
MEAN_MOTION_DOT = -.82E-6
MEAN_MOTION_DDOT = 0

CCSDS_OMM_VERS = 2.0
CREATION_DATE  = 
ORIGINATOR     = 

OBJECT_NAME    = SL-14 R/B
OBJECT_ID      = 1987-038B
CENTER_NAME    = EARTH
REF_FRAME      = TEME
TIME_SYSTEM    = UTC
MEAN_ELEMENT_THEORY = SGP/SGP4

EPOCH          = 2026-03-19T01:33:12.611520
MEAN_MOTION    = 14.85377413
ECCENTRICITY   = .00203863
INCLINATION    = 82.4986
RA_OF_ASC_NODE = 287.9744
ARG_OF_PERICENTER = 130.7537
MEAN_ANOMALY   = 229.5453

EPHEMERIS_TYPE = 0
CLASSIFICATION_TYPE = U
NORAD_CAT_ID   = 17912
ELEMENT_SET_NO = 999
REV_AT_EPOCH   = 8062
BSTAR          = .44116791E-4
MEAN_MOTION_DOT = .405E-5
MEAN_MOTION_DDOT = 0

CCSDS_OMM_VERS = 2.0
CREATION_DATE  = 
ORIGINATOR     = 

OBJECT_NAME    = COSMOS 1844
OBJECT_ID      = 1987-041A
CENTER_NAME    = EARTH
REF_FRAME      = TEME
TIME_SYSTEM    = UTC
MEAN_ELEMENT_THEORY = SGP/SGP4

EPOCH          = 2026-03-19T05:30:36.240768
MEAN_MOTION    = 14.14551297
ECCENTRICITY   = .00305047
INCLINATION    = 70.9008
RA_OF_ASC_NODE = 14.0537
ARG_OF_PERICENTER = 3.9431
MEAN_ANOMALY   = 356.1925

EPHEMERIS_TYPE = 0
CLASSIFICATION_TYPE = U
NORAD_CAT_ID   = 17973
ELEMENT_SET_NO = 999
REV_AT_EPOCH   = 493
BSTAR          = .45594972E-4
MEAN_MOTION_DOT = .4E-6
MEAN_MOTION_DDOT = 0

CCSDS_OMM_VERS = 2.0
CREATION_DATE  = 
ORIGINATOR     = 

OBJECT_NAME    = SL-14 R/B
OBJECT_ID      = 1987-055B
CENTER_NAME    = EARTH
REF_FRAME      = TEME
TIME_SYSTEM    = UTC
MEAN_ELEMENT_THEORY = SGP/SGP4

EPOCH          = 2026-03-19T05:48:30.705120
MEAN_MOTION    = 14.85639418
ECCENTRICITY   = .00202806
INCLINATION    = 82.5025
RA_OF_ASC_NODE = 340.0308
ARG_OF_PERICENTER = 346.4215
MEAN_ANOMALY   = 13.6452

EPHEMERIS_TYPE = 0
CLASSIFICATION_TYPE = U
NORAD_CAT_ID   = 18153
ELEMENT_SET_NO = 999
REV_AT_EPOCH   = 7135
BSTAR          = .45376382E-4
MEAN_MOTION_DOT = .418E-5
MEAN_MOTION_DDOT = 0

CCSDS_OMM_VERS = 2.0
CREATION_DATE  = 
ORIGINATOR     = 

OBJECT_NAME    = COSMOS 1867
OBJECT_ID      = 1987-060A
CENTER_NAME    = EARTH
REF_FRAME      = TEME
TIME_SYSTEM    = UTC
MEAN_ELEMENT_THEORY = SGP/SGP4

EPOCH          = 2026-03-19T07:00:06.728256
MEAN_MOTION    = 14.31504480
ECCENTRICITY   = .00146363
INCLINATION    = 65.0096
RA_OF_ASC_NODE = 279.8141
ARG_OF_PERICENTER = 279.2397
MEAN_ANOMALY   = 80.7032

EPHEMERIS_TYPE = 0
CLASSIFICATION_TYPE = U
NORAD_CAT_ID   = 18187
ELEMENT_SET_NO = 999
REV_AT_EPOCH   = 2131
BSTAR          = .21763709E-4
MEAN_MOTION_DOT = -.42E-6
MEAN_MOTION_DDOT = 0

CCSDS_OMM_VERS = 2.0
CREATION_DATE  = 
ORIGINATOR     = 

OBJECT_NAME    = SL-14 R/B
OBJECT_ID      = 1988-001B
CENTER_NAME    = EARTH
REF_FRAME      = TEME
TIME_SYSTEM    = UTC
MEAN_ELEMENT_THEORY = SGP/SGP4

EPOCH          = 2026-03-19T07:19:44.649696
MEAN_MOTION    = 14.85538764
ECCENTRICITY   = .00175039
INCLINATION    = 82.5160
RA_OF_ASC_NODE = 186.3188
ARG_OF_PERICENTER = 202.1781
MEAN_ANOMALY   = 157.8680

EPHEMERIS_TYPE = 0
CLASSIFICATION_TYPE = U
NORAD_CAT_ID   = 18749
ELEMENT_SET_NO = 999
REV_AT_EPOCH   = 4345
BSTAR          = .53318211E-4
MEAN_MOTION_DOT = .486E-5
MEAN_MOTION_DDOT = 0

CCSDS_OMM_VERS = 2.0
CREATION_DATE  = 
ORIGINATOR     = 

OBJECT_NAME    = COSMOS 1933
OBJECT_ID      = 1988-020A
CENTER_NAME    = EARTH
REF_FRAME      = TEME
TIME_SYSTEM    = UTC
MEAN_ELEMENT_THEORY = SGP/SGP4

EPOCH          = 2026-03-18T22:51:40.618080
MEAN_MOTION    = 15.18067830
ECCENTRICITY   = .0004605
INCLINATION    = 82.5102
RA_OF_ASC_NODE = 241.7445
ARG_OF_PERICENTER = 151.5918
MEAN_ANOMALY   = 208.5567

EPHEMERIS_TYPE = 0
CLASSIFICATION_TYPE = U
NORAD_CAT_ID   = 18958
ELEMENT_SET_NO = 999
REV_AT_EPOCH   = 5163
BSTAR          = .17470391E-3
MEAN_MOTION_DOT = .3589E-4
MEAN_MOTION_DDOT = 0

